{"fetched_at":"2026-03-29T16:36:15Z","count":15609,"tles":[{"name":"SAUDISAT 2","line1":"1 28371U 04025F   26087.93588300  .00000350  00000+0  89180-4 0  9998","line2":"2 28371  98.5507  85.8502 0024666 180.5167 179.6009 14.56631381154063","category":"Other"}]}